STARLINK-31246          
1 58835U 24017K   24035.00001157 -.00103596  00000+0 -74049-3 0  9993
2 58835  53.1627 166.1513 0000994  81.3487 125.8971 15.73272673  2852
STARLINK-31251          
1 58836U 24017L   24034.91667824  .00078995  00000+0  56311-3 0  9996
2 58836  53.1631 166.5610 0000895 145.7373 311.1044 15.73151749  2951
STARLINK-31172          
1 58837U 24017M   24034.91667824 -.01063599  00000+0 -62971-2 0  9992
2 58837  53.1656 166.3521 0001226  87.7897 111.0607 15.79738796  2842
STARLINK-31249          
1 58838U 24017N   24034.91667824  .00113664  00000+0  80596-3 0  9993
2 58838  53.1631 166.5587 0000380 110.4157 347.3313 15.73123108  2840
STARLINK-31250          
1 58839U 24017P   24034.91667824  .00026561  00000+0  19315-3 0  9994
2 58839  53.1625 166.5566 0001080  91.1962   7.3853 15.73188298  2795
STARLINK-31248          
1 58840U 24017Q   24034.91667824  .00087543  00000+0  62448-3 0  9998
2 58840  53.1630 166.5529 0000743  66.2309  34.2348 15.73093747  2955
STARLINK-31236          
1 58841U 24017R   24034.58334491 -.00023003  00000+0 -15983-3 0  9998
2 58841  53.1636 168.2063 0000711 128.7626 241.7499 15.73214100  2797
STARLINK-31228          
1 58842U 24017S   24035.00001157  .00018678  00000+0  13743-3 0  9999
2 58842  53.1628 166.1378 0001034 190.3476  23.1731 15.73159316  2857
STARLINK-31280          
1 58843U 24017T   24034.91667824  .00031658  00000+0  22967-3 0  9999
2 58843  53.1634 166.5494 0000785 174.0746 288.1215 15.73143332  2849
STARLINK-31269          
1 58844U 24017U   24035.00001157 -.00414268  00000+0 -30680-2 0  9996
2 58844  53.1611 166.1302 0001449 177.5143  39.5783 15.73401336  2856
STARLINK-31264          
1 58845U 24017V   24035.00001157 -.00132051  00000+0 -94951-3 0  9996
2 58845  53.1624 166.1326 0001282 159.4084  56.7342 15.73242065  2859
STARLINK-31273          
1 58846U 24017W   24034.91667824  .00052222  00000+0  37465-3 0  9991
2 58846  53.1626 166.5478 0001056  11.8182  91.1846 15.73170101  2845
STARLINK-31262          
1 58847U 24017X   24034.91667824  .00067125  00000+0  48073-3 0  9997
2 58847  53.1612 166.5420 0000988  68.1799  37.5665 15.73107897  2845
AAC-AIS-SAT3            
1 58848U 23174DH  24034.90021661  .00005166  00000+0  35695-3 0  9996
2 58848  97.4501 110.5441 0014355 111.0395 249.2369 15.06080067 13311
