[
  {
    "OBJECT_NAME": "STARLINK-31246",
    "OBJECT_ID": "2024-017K",
    "EPOCH": "2024-02-04T00:00:00.999648",
    "MEAN_MOTION": 15.73272673,
    "ECCENTRICITY": 9.94e-05,
    "INCLINATION": 53.1627,
    "RA_OF_ASC_NODE": 166.1513,
    "ARG_OF_PERICENTER": 81.3487,
    "MEAN_ANOMALY": 125.8971,
    "EPHEMERIS_TYPE": 0,
    "CLASSIFICATION_TYPE": "U",
    "NORAD_CAT_ID": 58835,
    "ELEMENT_SET_NO": 999,
    "REV_AT_EPOCH": 285,
    "BSTAR": -0.00074049,
    "MEAN_MOTION_DOT": -0.00103596,
    "MEAN_MOTION_DDOT": 0
  },
  {
    "OBJECT_NAME": "STARLINK-31251",
    "OBJECT_ID": "2024-017L",
    "EPOCH": "2024-02-03T22:00:00.999936",
    "MEAN_MOTION": 15.73151749,
    "ECCENTRICITY": 8.95e-05,
    "INCLINATION": 53.1631,
    "RA_OF_ASC_NODE": 166.561,
    "ARG_OF_PERICENTER": 145.7373,
    "MEAN_ANOMALY": 311.1044,
    "EPHEMERIS_TYPE": 0,
    "CLASSIFICATION_TYPE": "U",
    "NORAD_CAT_ID": 58836,
    "ELEMENT_SET_NO": 999,
    "REV_AT_EPOCH": 295,
    "BSTAR": 0.00056311,
    "MEAN_MOTION_DOT": 0.00078995,
    "MEAN_MOTION_DDOT": 0
  },
  {
    "OBJECT_NAME": "STARLINK-31172",
    "OBJECT_ID": "2024-017M",
    "EPOCH": "2024-02-03T22:00:00.999936",
    "MEAN_MOTION": 15.79738796,
    "ECCENTRICITY": 0.0001226,
    "INCLINATION": 53.1656,
    "RA_OF_ASC_NODE": 166.3521,
    "ARG_OF_PERICENTER": 87.7897,
    "MEAN_ANOMALY": 111.0607,
    "EPHEMERIS_TYPE": 0,
    "CLASSIFICATION_TYPE": "U",
    "NORAD_CAT_ID": 58837,
    "ELEMENT_SET_NO": 999,
    "REV_AT_EPOCH": 284,
    "BSTAR": -0.0062971,
    "MEAN_MOTION_DOT": -0.01063599,
    "MEAN_MOTION_DDOT": 0
  },
  {
    "OBJECT_NAME": "STARLINK-31249",
    "OBJECT_ID": "2024-017N",
    "EPOCH": "2024-02-03T22:00:00.999936",
    "MEAN_MOTION": 15.73123108,
    "ECCENTRICITY": 3.8e-05,
    "INCLINATION": 53.1631,
    "RA_OF_ASC_NODE": 166.5587,
    "ARG_OF_PERICENTER": 110.4157,
    "MEAN_ANOMALY": 347.3313,
    "EPHEMERIS_TYPE": 0,
    "CLASSIFICATION_TYPE": "U",
    "NORAD_CAT_ID": 58838,
    "ELEMENT_SET_NO": 999,
    "REV_AT_EPOCH": 284,
    "BSTAR": 0.00080596,
    "MEAN_MOTION_DOT": 0.00113664,
    "MEAN_MOTION_DDOT": 0
  },
  {
    "OBJECT_NAME": "STARLINK-31250",
    "OBJECT_ID": "2024-017P",
    "EPOCH": "2024-02-03T22:00:00.999936",
    "MEAN_MOTION": 15.73188298,
    "ECCENTRICITY": 0.000108,
    "INCLINATION": 53.1625,
    "RA_OF_ASC_NODE": 166.5566,
    "ARG_OF_PERICENTER": 91.1962,
    "MEAN_ANOMALY": 7.3853,
    "EPHEMERIS_TYPE": 0,
    "CLASSIFICATION_TYPE": "U",
    "NORAD_CAT_ID": 58839,
    "ELEMENT_SET_NO": 999,
    "REV_AT_EPOCH": 279,
    "BSTAR": 0.00019315,
    "MEAN_MOTION_DOT": 0.00026561,
    "MEAN_MOTION_DDOT": 0
  },
  {
    "OBJECT_NAME": "STARLINK-31248",
    "OBJECT_ID": "2024-017Q",
    "EPOCH": "2024-02-03T22:00:00.999936",
    "MEAN_MOTION": 15.73093747,
    "ECCENTRICITY": 7.43e-05,
    "INCLINATION": 53.163,
    "RA_OF_ASC_NODE": 166.5529,
    "ARG_OF_PERICENTER": 66.2309,
    "MEAN_ANOMALY": 34.2348,
    "EPHEMERIS_TYPE": 0,
    "CLASSIFICATION_TYPE": "U",
    "NORAD_CAT_ID": 58840,
    "ELEMENT_SET_NO": 999,
    "REV_AT_EPOCH": 295,
    "BSTAR": 0.00062448,
    "MEAN_MOTION_DOT": 0.00087543,
    "MEAN_MOTION_DDOT": 0
  },
  {
    "OBJECT_NAME": "STARLINK-31236",
    "OBJECT_ID": "2024-017R",
    "EPOCH": "2024-02-03T14:00:01.000224",
    "MEAN_MOTION": 15.732141,
    "ECCENTRICITY": 7.11e-05,
    "INCLINATION": 53.1636,
    "RA_OF_ASC_NODE": 168.2063,
    "ARG_OF_PERICENTER": 128.7626,
    "MEAN_ANOMALY": 241.7499,
    "EPHEMERIS_TYPE": 0,
    "CLASSIFICATION_TYPE": "U",
    "NORAD_CAT_ID": 58841,
    "ELEMENT_SET_NO": 999,
    "REV_AT_EPOCH": 279,
    "BSTAR": -0.00015983,
    "MEAN_MOTION_DOT": -0.00023003,
    "MEAN_MOTION_DDOT": 0
  },
  {
    "OBJECT_NAME": "STARLINK-31228",
    "OBJECT_ID": "2024-017S",
    "EPOCH": "2024-02-04T00:00:00.999648",
    "MEAN_MOTION": 15.73159316,
    "ECCENTRICITY": 0.0001034,
    "INCLINATION": 53.1628,
    "RA_OF_ASC_NODE": 166.1378,
    "ARG_OF_PERICENTER": 190.3476,
    "MEAN_ANOMALY": 23.1731,
    "EPHEMERIS_TYPE": 0,
    "CLASSIFICATION_TYPE": "U",
    "NORAD_CAT_ID": 58842,
    "ELEMENT_SET_NO": 999,
    "REV_AT_EPOCH": 285,
    "BSTAR": 0.00013743,
    "MEAN_MOTION_DOT": 0.00018678,
    "MEAN_MOTION_DDOT": 0
  },
  {
    "OBJECT_NAME": "STARLINK-31280",
    "OBJECT_ID": "2024-017T",
    "EPOCH": "2024-02-03T22:00:00.999936",
    "MEAN_MOTION": 15.73143332,
    "ECCENTRICITY": 7.85e-05,
    "INCLINATION": 53.1634,
    "RA_OF_ASC_NODE": 166.5494,
    "ARG_OF_PERICENTER": 174.0746,
    "MEAN_ANOMALY": 288.1215,
    "EPHEMERIS_TYPE": 0,
    "CLASSIFICATION_TYPE": "U",
    "NORAD_CAT_ID": 58843,
    "ELEMENT_SET_NO": 999,
    "REV_AT_EPOCH": 284,
    "BSTAR": 0.00022967,
    "MEAN_MOTION_DOT": 0.00031658,
    "MEAN_MOTION_DDOT": 0
  },
  {
    "OBJECT_NAME": "STARLINK-31269",
    "OBJECT_ID": "2024-017U",
    "EPOCH": "2024-02-04T00:00:00.999648",
    "MEAN_MOTION": 15.73401336,
    "ECCENTRICITY": 0.0001449,
    "INCLINATION": 53.1611,
    "RA_OF_ASC_NODE": 166.1302,
    "ARG_OF_PERICENTER": 177.5143,
    "MEAN_ANOMALY": 39.5783,
    "EPHEMERIS_TYPE": 0,
    "CLASSIFICATION_TYPE": "U",
    "NORAD_CAT_ID": 58844,
    "ELEMENT_SET_NO": 999,
    "REV_AT_EPOCH": 285,
    "BSTAR": -0.003068,
    "MEAN_MOTION_DOT": -0.00414268,
    "MEAN_MOTION_DDOT": 0
  },
  {
    "OBJECT_NAME": "STARLINK-31264",
    "OBJECT_ID": "2024-017V",
    "EPOCH": "2024-02-04T00:00:00.999648",
    "MEAN_MOTION": 15.73242065,
    "ECCENTRICITY": 0.0001282,
    "INCLINATION": 53.1624,
    "RA_OF_ASC_NODE": 166.1326,
    "ARG_OF_PERICENTER": 159.4084,
    "MEAN_ANOMALY": 56.7342,
    "EPHEMERIS_TYPE": 0,
    "CLASSIFICATION_TYPE": "U",
    "NORAD_CAT_ID": 58845,
    "ELEMENT_SET_NO": 999,
    "REV_AT_EPOCH": 285,
    "BSTAR": -0.00094951,
    "MEAN_MOTION_DOT": -0.00132051,
    "MEAN_MOTION_DDOT": 0
  },
  {
    "OBJECT_NAME": "STARLINK-31273",
    "OBJECT_ID": "2024-017W",
    "EPOCH": "2024-02-03T22:00:00.999936",
    "MEAN_MOTION": 15.73170101,
    "ECCENTRICITY": 0.0001056,
    "INCLINATION": 53.1626,
    "RA_OF_ASC_NODE": 166.5478,
    "ARG_OF_PERICENTER": 11.8182,
    "MEAN_ANOMALY": 91.1846,
    "EPHEMERIS_TYPE": 0,
    "CLASSIFICATION_TYPE": "U",
    "NORAD_CAT_ID": 58846,
    "ELEMENT_SET_NO": 999,
    "REV_AT_EPOCH": 284,
    "BSTAR": 0.00037465,
    "MEAN_MOTION_DOT": 0.00052222,
    "MEAN_MOTION_DDOT": 0
  },
  {
    "OBJECT_NAME": "STARLINK-31262",
    "OBJECT_ID": "2024-017X",
    "EPOCH": "2024-02-03T22:00:00.999936",
    "MEAN_MOTION": 15.73107897,
    "ECCENTRICITY": 9.88e-05,
    "INCLINATION": 53.1612,
    "RA_OF_ASC_NODE": 166.542,
    "ARG_OF_PERICENTER": 68.1799,
    "MEAN_ANOMALY": 37.5665,
    "EPHEMERIS_TYPE": 0,
    "CLASSIFICATION_TYPE": "U",
    "NORAD_CAT_ID": 58847,
    "ELEMENT_SET_NO": 999,
    "REV_AT_EPOCH": 284,
    "BSTAR": 0.00048073,
    "MEAN_MOTION_DOT": 0.00067125,
    "MEAN_MOTION_DDOT": 0
  },
  {
    "OBJECT_NAME": "AAC-AIS-SAT3",
    "OBJECT_ID": "2023-174DH",
    "EPOCH": "2024-02-03T21:36:18.715104",
    "MEAN_MOTION": 15.06080067,
    "ECCENTRICITY": 0.0014355,
    "INCLINATION": 97.4501,
    "RA_OF_ASC_NODE": 110.5441,
    "ARG_OF_PERICENTER": 111.0395,
    "MEAN_ANOMALY": 249.2369,
    "EPHEMERIS_TYPE": 0,
    "CLASSIFICATION_TYPE": "U",
    "NORAD_CAT_ID": 58848,
    "ELEMENT_SET_NO": 999,
    "REV_AT_EPOCH": 1331,
    "BSTAR": 0.00035695,
    "MEAN_MOTION_DOT": 5.166e-05,
    "MEAN_MOTION_DDOT": 0
  }
]